API VERSION: 1.2
API SOURCE: NASA/JPL Horizons API

*******************************************************************************
 Revised: April 12, 2021             Mercury                            199 / 1

 PHYSICAL DATA (updated 2024-Mar-04):
  Vol. Mean Radius (km) =  2439.4+-0.1    Density (g cm^-3)     = 5.427
  Mass x10^23 (kg)      =     3.302       Volume (x10^10 km^3)  = 6.085  
  Sidereal rot. period  =    58.6463 d    Sid. rot. rate (rad/s)= 0.00000124001
  Mean solar day        =   175.9421 d    Core radius (km)      = ~1600 
  Geometric Albedo      =     0.106       Surface emissivity    = 0.77+-0.06
  GM (km^3/s^2)         = 22031.86855     Equatorial radius, Re = 2440.53 km
  GM 1-sigma (km^3/s^2) =                 Mass ratio (Sun/plnt) = 6023682
  Mom. of Inertia       =     0.33        Equ. gravity  m/s^2   = 3.701     
  Atmos. pressure (bar) = < 5x10^-15      Max. angular diam.    = 11.0"   
  Mean Temperature (K)  = 440             Visual mag. V(1,0)    = -0.42 
  Obliquity to orbit[1] =  2.11' +/- 0.1' Hill's sphere rad. Rp = 94.4 
  Sidereal orb. per.    =  0.2408467 y    Mean Orbit vel.  km/s = 47.362 
  Sidereal orb. per.    = 87.969257  d    Escape vel. km/s      =  4.435
                                 Perihelion  Aphelion    Mean
  Solar Constant (W/m^2)         14462       6278        9126
  Maximum Planetary IR (W/m^2)   12700       5500        8000
  Minimum Planetary IR (W/m^2)   6           6           6
*******************************************************************************


*******************************************************************************
Ephemeris / API_USER Thu Feb 19 13:09:18 2026 Pasadena, USA      / Horizons
*******************************************************************************
Target body name: Mercury (199)                   {source: DE441}
Center body name: Earth (399)                     {source: DE441}
Center-site name: BODY CENTER
*******************************************************************************
Start time      : A.D. 2025-Jan-07 17:37:00.0000 TDB
Stop  time      : A.D. 2025-Jan-10 17:37:00.0000 TDB
Step-size       : 60 minutes
*******************************************************************************
Center geodetic : 0.0, 0.0, 0.0                   {E-lon(deg),Lat(deg),Alt(km)}
Center cylindric: 0.0, 0.0, 0.0                   {E-lon(deg),Dxy(km),Dz(km)}
Center radii    : 6378.137, 6378.137, 6356.752 km {Equator_a, b, pole_c}
Output units    : AU-D
Calendar mode   : Mixed Julian/Gregorian
Output type     : GEOMETRIC cartesian states
Output format   : 3 (position, velocity, LT, range, range-rate)
EOP file        : eop.260218.p260517
EOP coverage    : DATA-BASED 1962-JAN-20 TO 2026-FEB-18. PREDICTS-> 2026-MAY-16
Reference frame : Ecliptic of J2000.0
*******************************************************************************
JDTDB
   X     Y     Z
   VX    VY    VZ
   LT    RG    RR
*******************************************************************************
$$SOE
2460683.234027778 = A.D. 2025-Jan-07 17:37:00.0000 TDB 
 X =-2.916117375287525E-02 Y =-1.249076586026572E+00 Z = 4.234682533208156E-03
 VX= 3.049045425635320E-02 VY=-1.378748663029587E-02 VZ=-2.816068742091842E-03
 LT= 7.216071891956889E-03 RG= 1.249424117083786E+00 RR= 1.306246927317352E-02
2460683.275694444 = A.D. 2025-Jan-07 18:37:00.0000 TDB 
 X =-2.788989533313863E-02 Y =-1.249649920788086E+00 Z = 4.117334376227620E-03
 VX= 3.053088862277003E-02 VY=-1.373257077375385E-02 VZ=-2.816640025767353E-03
 LT= 7.219212455930818E-03 RG= 1.249967888879442E+00 RR= 1.303857946089195E-02
2460683.317361111 = A.D. 2025-Jan-07 19:37:00.0000 TDB 
 X =-2.661693480613856E-02 Y =-1.250220965997215E+00 Z = 3.999962761469990E-03
 VX= 3.057119541760591E-02 VY=-1.367758816096586E-02 VZ=-2.817194719982602E-03
 LT= 7.222347272738420E-03 RG= 1.250510665584095E+00 RR= 1.301470490550762E-02
2460683.359027778 = A.D. 2025-Jan-07 20:37:00.0000 TDB 
 X =-2.534229748578207E-02 Y =-1.250789718878085E+00 Z = 3.882568379588518E-03
 VX= 3.061137471647680E-02 VY=-1.362253906226192E-02 VZ=-2.817732852300101E-03
 LT= 7.225476346051521E-03 RG= 1.251052447833503E+00 RR= 1.299084560942971E-02
2460683.400694444 = A.D. 2025-Jan-07 21:37:00.0000 TDB 
 X =-2.406598868282664E-02 Y =-1.251356176666059E+00 Z = 3.765151920089967E-03
 VX= 3.065142659493826E-02 VY=-1.356742374674065E-02 VZ=-2.818254450178860E-03
 LT= 7.228599679542444E-03 RG= 1.251593236263508E+00 RR= 1.296700157447328E-02
2460683.442361111 = A.D. 2025-Jan-07 22:37:00.0000 TDB 
 X =-2.278801370488324E-02 Y =-1.251920336607690E+00 Z = 3.647714071338694E-03
 VX= 3.069135112848052E-02 VY=-1.351224248227493E-02 VZ=-2.818759540974492E-03
 LT= 7.231717276883893E-03 RG= 1.252133031510019E+00 RR= 1.294317280186385E-02
2460683.484027778 = A.D. 2025-Jan-07 23:37:00.0000 TDB 
 X =-2.150837785641857E-02 Y =-1.252482195960662E+00 Z = 3.530255520561831E-03
 VX= 3.073114839252351E-02 VY=-1.345699553551757E-02 VZ=-2.819248151939321E-03
 LT= 7.234829141748784E-03 RG= 1.252671834208983E+00 RR= 1.291935929224195E-02
2460683.525694444 = A.D. 2025-Jan-08 00:37:00.0000 TDB 
 X =-2.022708643875839E-02 Y =-1.253041751993749E+00 Z = 3.412776953853168E-03
 VX= 3.077081846241198E-02 VY=-1.340168317190696E-02 VZ=-2.819720310222493E-03
 LT= 7.237935277810126E-03 RG= 1.253209644996360E+00 RR= 1.289556104566750E-02
2460683.567361111 = A.D. 2025-Jan-08 01:37:00.0000 TDB 
 X =-1.894414475009096E-02 Y =-1.253599001986758E+00 Z = 3.295279056177038E-03
 VX= 3.081036141341071E-02 VY=-1.334630565567280E-02 VZ=-2.820176042870105E-03
 LT= 7.241035688740864E-03 RG= 1.253746464508102E+00 RR= 1.287177806162442E-02
2460683.609027778 = A.D. 2025-Jan-08 02:37:00.0000 TDB 
 X =-1.765955808547010E-02 Y =-1.254153943230478E+00 Z = 3.177762511373599E-03
 VX= 3.084977732069957E-02 VY=-1.329086324984168E-02 VZ=-2.820615376825319E-03
 LT= 7.244130378213757E-03 RG= 1.254282293380127E+00 RR= 1.284801033902495E-02
2460683.650694444 = A.D. 2025-Jan-08 03:37:00.0000 TDB 
 X =-1.637333173681898E-02 Y =-1.254706573026637E+00 Z = 3.060228002161818E-03
 VX= 3.088906625936885E-02 VY=-1.323535621624280E-02 VZ=-2.821038338928490E-03
 LT= 7.247219349901231E-03 RG= 1.254817132248296E+00 RR= 1.282425787621411E-02
2460683.692361111 = A.D. 2025-Jan-08 04:37:00.0000 TDB 
 X =-1.508547099293410E-02 Y =-1.255256888687844E+00 Z = 2.942676210144953E-03
 VX= 3.092822830441443E-02 VY=-1.317978481551365E-02 VZ=-2.821444955917270E-03
 LT= 7.250302607475247E-03 RG= 1.255350981748389E+00 RR= 1.280052067097408E-02
2460683.734027778 = A.D. 2025-Jan-08 05:37:00.0000 TDB 
 X =-1.379598113948899E-02 Y =-1.255804887537546E+00 Z = 2.825107815814235E-03
 VX= 3.096726353073306E-02 VY=-1.312414930710562E-02 VZ=-2.821835254426775E-03
 LT= 7.253380154607167E-03 RG= 1.255883842516083E+00 RR= 1.277679872052853E-02
2460683.775694444 = A.D. 2025-Jan-08 06:37:00.0000 TDB 
 X =-1.250486745903862E-02 Y =-1.256350566909973E+00 Z = 2.707523498553058E-03
 VX= 3.100617201311777E-02 VY=-1.306844994928971E-02 VZ=-2.822209260989687E-03
 LT= 7.256451994967611E-03 RG= 1.256415715186926E+00 RR= 1.275309202154694E-02
2460683.817361111 = A.D. 2025-Jan-08 07:37:00.0000 TDB 
 X =-1.121213523102424E-02 Y =-1.256893924150094E+00 Z = 2.589923936641650E-03
 VX= 3.104495382625306E-02 VY=-1.301268699916216E-02 VZ=-2.822567002036402E-03
 LT= 7.259518132226340E-03 RG= 1.256946600396317E+00 RR= 1.272940057014893E-02
2460683.859027778 = A.D. 2025-Jan-08 08:37:00.0000 TDB 
 X =-9.917789731776957E-03 Y =-1.257434956613565E+00 Z = 2.472309807260970E-03
 VX= 3.108360904471043E-02 VY=-1.295686071265015E-02 VZ=-2.822908503895160E-03
 LT= 7.262578570052110E-03 RG= 1.257476498779482E+00 RR= 1.270572436190849E-02
2460683.900694444 = A.D. 2025-Jan-08 09:37:00.0000 TDB 
 X =-8.621836234523575E-03 Y =-1.257973661666682E+00 Z = 2.354681786497079E-03
 VX= 3.112213774294370E-02 VY=-1.290097134451742E-02 VZ=-2.823233792792195E-03
 LT= 7.265633312112546E-03 RG= 1.258005410971451E+00 RR= 1.268206339185827E-02
2460683.942361111 = A.D. 2025-Jan-08 10:37:00.0000 TDB 
 X =-7.324280009391201E-03 Y =-1.258510036686331E+00 Z = 2.237040549345335E-03
 VX= 3.116053999528450E-02 VY=-1.284501914836997E-02 VZ=-2.823542894851878E-03
 LT= 7.268682362074019E-03 RG= 1.258533337607036E+00 RR= 1.265841765449373E-02
2460683.984027778 = A.D. 2025-Jan-08 11:37:00.0000 TDB 
 X =-6.025126323412165E-03 Y =-1.259044079059942E+00 Z = 2.119386769715163E-03
 VX= 3.119881587593772E-02 VY=-1.278900437666168E-02 VZ=-2.823835836096852E-03
 LT= 7.271725723601505E-03 RG= 1.259060279320807E+00 RR= 1.263478714377739E-02
2460684.025694444 = A.D. 2025-Jan-08 12:37:00.0000 TDB 
 X =-4.724380440529900E-03 Y =-1.259575786185439E+00 Z = 2.001721120432953E-03
 VX= 3.123696545897707E-02 VY=-1.273292728070003E-02 VZ=-2.824112642448188E-03
 LT= 7.274763400358465E-03 RG= 1.259586236747074E+00 RR= 1.261117185314298E-02
2460684.067361111 = A.D. 2025-Jan-08 13:37:00.0000 TDB 
 X =-3.422047621603973E-03 Y =-1.260105155471194E+00 Z = 1.884044273248129E-03
 VX= 3.127498881834057E-02 VY=-1.267678811065171E-02 VZ=-2.824373339725553E-03
 LT= 7.277795396006719E-03 RG= 1.260111210519861E+00 RR= 1.258757177549959E-02
2460684.109027778 = A.D. 2025-Jan-08 14:37:00.0000 TDB 
 X =-2.118133124416407E-03 Y =-1.260632184335979E+00 Z = 1.766356898835845E-03
 VX= 3.131288602782619E-02 VY=-1.262058711554828E-02 VZ=-2.824617953647332E-03
 LT= 7.280821714206316E-03 RG= 1.260635201272885E+00 RR= 1.256398690323577E-02
2460684.150694444 = A.D. 2025-Jan-08 15:37:00.0000 TDB 
 X =-8.126422036771145E-04 Y =-1.261156870208918E+00 Z = 1.648659666801560E-03
 VX= 3.135065716108742E-02 VY=-1.256432454329189E-02 VZ=-2.824846509830821E-03
 LT= 7.283842358615406E-03 RG= 1.261158209639537E+00 RR= 1.254041722822363E-02
